IRIDIUM 136             
1 42962U 17061H   23269.84285548  .00000210  00000+0  67753-4 0  9998
2 42962  86.3915  80.8035 0002350  88.8971 271.2494 14.34219787312317
